0 SCOUT X-4 DEB
1 00732U 63053H   13282.77219987  .00009183  00000-0  40328-2 0  2381
2 00732 078.5943 034.7943 0596456 222.4047 132.9520 13.56527763357132
0 SCOUT X-4 DEB
1 00732U 63053H   13284.39482964  .00011028  00000-0  48390-2 0  2397
2 00732 078.5939 032.9054 0596441 218.5698 137.1382 13.56555253357354
0 SCOUT X-4 DEB
1 00732U 63053H   13285.64865946  .00009196  00000-0  40344-2 0  2407
2 00732 078.5940 031.4452 0596397 215.6022 140.3929 13.56575684357523
0 SCOUT X-4 DEB
1 00732U 63053H   13286.75496598  .00009149  00000-0  40123-2 0  2417
2 00732 078.5943 030.1573 0596367 212.9860 143.2723 13.56596975357679
0 SCOUT X-4 DEB
1 00732U 63053H   13288.30376865  .00013789  00000-0  60413-2 0  2424
2 00732 078.5948 028.3544 0596281 209.3237 147.3183 13.56629772357884
0 SCOUT X-4 DEB
1 00732U 63053H   13290.22128272  .00012948  00000-0  56701-2 0  2437
2 00732 078.5952 026.1225 0596174 204.7901 152.3485 13.56671005358146
0 SCOUT X-4 DEB
1 00732U 63053H   13290.59004069  .00010271  00000-0  45041-2 0  2447
2 00732 078.5935 025.6934 0595998 203.9115 153.3720 13.56679025358197
0 SCOUT X-4 DEB
1 00732U 63053H   13291.40126352  .00011503  00000-0  50363-2 0  2440
2 00732 078.5951 024.7486 0596098 201.9958 155.4596 13.56698425358304
0 SCOUT X-4 DEB
1 00732U 63053H   13292.65497011  .00011096  00000-0  48565-2 0  2450
2 00732 078.5946 023.2892 0596011 199.0348 158.7639 13.56726854358478
0 SCOUT X-4 DEB
1 00732U 63053H   13293.76116143  .00011757  00000-0  51452-2 0  2461
2 00732 078.5942 022.0012 0595909 196.4234 161.6840 13.56746992358624
0 SCOUT X-4 DEB
1 00732U 63053H   13294.94108064  .00011502  00000-0  50324-2 0  2471
2 00732 078.5939 020.6271 0595812 193.6275 164.8154 13.56772923358781
0 SCOUT X-4 DEB
1 00732U 63053H   13296.19472308  .00012301  00000-0  53800-2 0  2486
2 00732 078.5934 019.1673 0595713 190.6598 168.1440 13.56798787358950
